ADRAS-J                 
1 58992U 24034A   24086.57250023  .00007963  00000+0  76940-3 0  9993
2 58992  98.2049  55.9403 0043458 322.1670  37.6495 14.92398479  5531
